NORAD_CAT_ID,OBJECT_NAME,OBJECT_TYPE,EPOCH,MEAN_MOTION,ECCENTRICITY,INCLINATION,RA_OF_ASC_NODE,ARG_OF_PERICENTER,MEAN_ANOMALY,BSTAR,MEAN_MOTION_DOT,MEAN_MOTION_DDOT,TLE_LINE0,TLE_LINE1,TLE_LINE2,SEMIMAJOR_AXIS,PERIOD,APOGEE,PERIGEE,DECAYED
53136.0,STARLINK-4152,PAYLOAD,2024-05-30 14:03:05,15.08845903,0.000132,53.2157,203.5715,112.2218,247.8914,-2.0396e-05,-6.13e-06,0.0,0 STARLINK-4152,1 53136U 22083E   24151.58548089 -.00000613  00000-0 -20396-4 0  9999,2 53136  53.2157 203.5715 0001320 112.2218 247.8914 15.08845903104361,6917.862,95.437,540.641,538.814,0.0
53136.0,STARLINK-4152,PAYLOAD,2024-05-31 02:46:11,15.08832091,0.0001261,53.2161,201.1927,100.4302,259.6833,0.00019758,2.857e-05,0.0,0 STARLINK-4152,1 53136U 22083E   24152.11540715  .00002857  00000-0  19758-3 0  9996,2 53136  53.2161 201.1927 0001261 100.4302 259.6833 15.08832091104086,6917.905,95.438,540.642,538.897,0.0
53136.0,STARLINK-4152,PAYLOAD,2024-05-31 12:18:29,15.08840346,0.0001265,53.2161,199.4083,98.2556,261.858,0.0002699,4.01e-05,0.0,0 STARLINK-4152,1 53136U 22083E   24152.51284546  .00004010  00000-0  26990-3 0  9996,2 53136  53.2161 199.4083 0001265  98.2556 261.8580 15.08840346104500,6917.879,95.438,540.619,538.869,0.0
53136.0,STARLINK-4152,PAYLOAD,2024-05-31 20:15:25,15.08839543,0.0001291,53.215,197.9225,86.9001,273.2138,0.00019213,2.771e-05,0.0,0 STARLINK-4152,1 53136U 22083E   24152.84404862  .00002771  00000-0  19213-3 0  9999,2 53136  53.2150 197.9225 0001291  86.9001 273.2138 15.08839543104555,6917.882,95.438,540.64,538.854,0.0
53136.0,STARLINK-4152,PAYLOAD,2024-06-01 10:33:53,15.0884521,0.0001353,53.2152,195.2465,86.4038,273.7109,0.00012491,1.701e-05,0.0,0 STARLINK-4152,1 53136U 22083E   24153.44020618  .00001701  00000-0  12491-3 0  9992,2 53136  53.2152 195.2465 0001353  86.4038 273.7109 15.08845210104289,6917.864,95.437,540.665,538.793,0.0
53136.0,STARLINK-4152,PAYLOAD,2024-06-02 12:00:04,15.08839747,0.0001353,53.2158,190.4884,89.2211,270.8936,3.3665e-05,2.48e-06,0.0,0 STARLINK-4152,1 53136U 22083E   24154.50005195  .00000248  00000-0  33665-4 0  9995,2 53136  53.2158 190.4884 0001353  89.2211 270.8936 15.08839747104443,6917.881,95.438,540.682,538.81,0.0
53136.0,STARLINK-4152,PAYLOAD,2024-06-02 19:57:00,15.08842949,0.0001358,53.2157,189.0018,89.2262,270.8885,-1.5594e-05,-5.36e-06,0.0,0 STARLINK-4152,1 53136U 22083E   24154.83125068 -.00000536  00000-0 -15594-4 0  9996,2 53136  53.2157 189.0018 0001358  89.2262 270.8885 15.08842949104852,6917.871,95.437,540.676,538.797,0.0
53136.0,STARLINK-4152,PAYLOAD,2024-06-03 08:40:05,15.08842294,0.0001337,53.2157,186.6224,89.7081,270.4064,7.3752e-05,8.86e-06,0.0,0 STARLINK-4152,1 53136U 22083E   24155.36116971  .00000886  00000-0  73752-4 0  9994,2 53136  53.2157 186.6224 0001337  89.7081 270.4064 15.08842294104932,6917.873,95.437,540.663,538.813,0.0
53136.0,STARLINK-4152,PAYLOAD,2024-06-04 11:41:38,15.0884635,0.0001293,53.2156,181.567,90.4236,269.6905,0.00014159,1.967e-05,0.0,0 STARLINK-4152,1 53136U 22083E   24156.48724579  .00001967  00000-0  14159-3 0  9993,2 53136  53.2156 181.5670 0001293  90.4236 269.6905 15.08846350104742,6917.861,95.437,540.62,538.832,0.0
53136.0,STARLINK-4152,PAYLOAD,2024-06-05 05:10:52,15.08840002,0.0001335,53.2155,178.2957,90.8336,269.2809,6.3295e-05,7.2e-06,0.0,0 STARLINK-4152,1 53136U 22083E   24157.21589085  .00000720  00000-0  63295-4 0  9998,2 53136  53.2155 178.2957 0001335  90.8336 269.2809 15.08840002104853,6917.88,95.438,540.669,538.822,0.0
53136.0,STARLINK-4152,PAYLOAD,2024-06-05 06:46:16,15.08840272,0.0001339,53.2156,177.9983,90.7343,269.3802,6.2268e-05,7.03e-06,0.0,0 STARLINK-4152,1 53136U 22083E   24157.28213055  .00000703  00000-0  62268-4 0  9996,2 53136  53.2156 177.9983 0001339  90.7343 269.3802 15.08840272105225,6917.88,95.438,540.671,538.818,0.0
53136.0,STARLINK-4152,PAYLOAD,2024-06-05 17:53:58,15.08837296,0.0001239,53.215,175.9164,87.3908,272.7226,6.2848e-05,7.12e-06,0.0,0 STARLINK-4152,1 53136U 22083E   24157.74581231  .00000712  00000-0  62848-4 0  9995,2 53136  53.2150 175.9164 0001239  87.3908 272.7226 15.08837296105293,6917.889,95.438,540.611,538.897,0.0
53136.0,STARLINK-4152,PAYLOAD,2024-06-06 05:01:40,15.08833397,0.0001347,53.2161,173.8356,90.1577,269.9569,-5.2305e-05,-1.12e-05,0.0,0 STARLINK-4152,1 53136U 22083E   24158.20949902 -.00001120  00000-0 -52305-4 0  9993,2 53136  53.2161 173.8356 0001347  90.1577 269.9569 15.08833397105004,6917.901,95.438,540.697,538.834,0.0
53136.0,STARLINK-4152,PAYLOAD,2024-06-06 08:12:27,15.08833207,0.0001338,53.2161,173.2422,93.1831,266.9314,-5.8205e-05,-1.214e-05,0.0,0 STARLINK-4152,1 53136U 22083E   24158.34197947 -.00001214  00000-0 -58205-4 0  9991,2 53136  53.2161 173.2422 0001338  93.1831 266.9314 15.08833207105384,6917.901,95.438,540.692,538.841,0.0
53136.0,STARLINK-4152,PAYLOAD,2024-06-07 01:41:41,15.08837829,0.0001367,53.2166,169.9707,91.8246,268.2903,4.971e-05,5.03e-06,0.0,0 STARLINK-4152,1 53136U 22083E   24159.07061593  .00000503  00000-0  49710-4 0  9998,2 53136  53.2166 169.9707 0001367  91.8246 268.2903 15.08837829105130,6917.887,95.438,540.698,538.806,0.0
53136.0,STARLINK-4152,PAYLOAD,2024-06-07 17:35:32,15.08839784,0.0001375,53.2169,166.9969,89.1377,270.9772,8.1775e-05,1.014e-05,0.0,0 STARLINK-4152,1 53136U 22083E   24159.73301512  .00001014  00000-0  81775-4 0  9994,2 53136  53.2169 166.9969 0001375  89.1377 270.9772 15.08839784105590,6917.881,95.438,540.697,538.795,0.0
53136.0,STARLINK-4152,PAYLOAD,2024-06-08 04:43:14,15.08841131,0.0001307,53.2161,164.9145,86.0873,274.0268,0.0001684,2.393e-05,0.0,0 STARLINK-4152,1 53136U 22083E   24160.19669243  .00002393  00000-0  16840-3 0  9995,2 53136  53.2161 164.9145 0001307  86.0873 274.0268 15.08841131105301,6917.877,95.437,540.646,538.838,0.0
53136.0,STARLINK-4152,PAYLOAD,2024-06-08 07:54:00,15.08844516,0.0001311,53.216,164.3197,85.8258,274.2884,0.00016742,2.378e-05,0.0,0 STARLINK-4152,1 53136U 22083E   24160.32917093  .00002378  00000-0  16742-3 0  9993,2 53136  53.2160 164.3197 0001311  85.8258 274.2884 15.08844516105687,6917.867,95.437,540.639,538.825,0.0
53136.0,STARLINK-4152,PAYLOAD,2024-06-08 17:26:19,15.08840112,0.0001321,53.2158,162.5363,88.6193,271.495,0.00010963,1.457e-05,0.0,0 STARLINK-4152,1 53136U 22083E   24160.72661531  .00001457  00000-0  10963-3 0  9996,2 53136  53.2158 162.5363 0001321  88.6193 271.4950 15.08840112105747,6917.88,95.438,540.659,538.831,0.0
53136.0,STARLINK-4152,PAYLOAD,2024-06-09 04:34:02,15.08835136,0.0001408,53.2163,160.4551,89.8366,270.2788,1.1696e-05,-1.02e-06,0.0,0 STARLINK-4152,1 53136U 22083E   24161.19030246 -.00000102  00000-0  11696-4 0  9993,2 53136  53.2163 160.4551 0001408  89.8366 270.2788 15.08835136105454,6917.895,95.438,540.734,538.786,0.0
53136.0,STARLINK-4152,PAYLOAD,2024-06-09 07:44:48,15.08836476,0.0001342,53.2162,159.8605,90.6451,269.4695,1.0722e-05,-1.17e-06,0.0,0 STARLINK-4152,1 53136U 22083E   24161.32278138 -.00000117  00000-0  10722-4 0  9997,2 53136  53.2162 159.8605 0001342  90.6451 269.4695 15.08836476105834,6917.891,95.438,540.685,538.828,0.0
53136.0,STARLINK-4152,PAYLOAD,2024-06-09 17:17:06,15.08840853,0.0001339,53.2163,158.076,91.0005,269.114,3.7302e-05,3.06e-06,0.0,0 STARLINK-4152,1 53136U 22083E   24161.72021785  .00000306  00000-0  37302-4 0  9997,2 53136  53.2163 158.0760 0001339  91.0005 269.1140 15.08840853105537,6917.878,95.438,540.669,538.816,0.0
53136.0,STARLINK-4152,PAYLOAD,2024-06-10 06:00:11,15.08847115,0.0001319,53.2159,155.6968,91.3537,268.7606,5.4936e-05,5.87e-06,0.0,0 STARLINK-4152,1 53136U 22083E   24162.25013196  .00000587  00000-0  54936-4 0  9996,2 53136  53.2159 155.6968 0001319  91.3537 268.7606 15.08847115105974,6917.859,95.437,540.636,538.811,0.0
53136.0,STARLINK-4152,PAYLOAD,2024-06-10 17:07:53,15.08840521,0.0001298,53.2163,153.6133,97.269,262.845,4.2597e-05,3.9e-06,0.0,0 STARLINK-4152,1 53136U 22083E   24162.71381517  .00000390  00000-0  42597-4 0  9994,2 53136  53.2163 153.6133 0001298  97.2690 262.8450 15.08840521106047,6917.879,95.438,540.642,538.846,0.0
53136.0,STARLINK-4152,PAYLOAD,2024-06-11 05:50:59,15.08834431,0.0001296,53.2161,151.2354,93.4975,266.6165,6.7039e-05,7.79e-06,0.0,0 STARLINK-4152,1 53136U 22083E   24163.24373989  .00000779  00000-0  67039-4 0  9996,2 53136  53.2161 151.2354 0001296  93.4975 266.6165 15.08834431105762,6917.897,95.438,540.659,538.866,0.0
53136.0,STARLINK-4152,PAYLOAD,2024-06-11 09:01:45,15.0883804,0.0001302,53.216,150.6408,91.4188,268.6953,6.9646e-05,8.21e-06,0.0,0 STARLINK-4152,1 53136U 22083E   24163.37621783  .00000821  00000-0  69646-4 0  9992,2 53136  53.2160 150.6408 0001302  91.4188 268.6953 15.08838040106146,6917.886,95.438,540.652,538.851,0.0
53136.0,STARLINK-4152,PAYLOAD,2024-06-12 05:41:46,15.0883861,0.0001329,53.2158,146.7745,92.8272,267.2872,1.7438e-06,-2.6e-06,0.0,0 STARLINK-4152,1 53136U 22083E   24164.23734051 -.00000260  00000-0  17438-5 0  9992,2 53136  53.2158 146.7745 0001329  92.8272 267.2872 15.08838610106273,6917.885,95.438,540.669,538.83,0.0
53136.0,STARLINK-4152,PAYLOAD,2024-06-12 15:14:05,15.08837802,0.0001342,53.2159,144.9905,92.6618,267.4528,1.334e-05,-7.6e-07,0.0,0 STARLINK-4152,1 53136U 22083E   24164.63478085 -.00000076  00000-0  13340-4 0  9990,2 53136  53.2159 144.9905 0001342  92.6618 267.4528 15.08837802105977,6917.887,95.438,540.68,538.824,0.0
53136.0,STARLINK-4152,PAYLOAD,2024-06-13 08:43:19,15.08842055,0.0001351,53.2167,141.7198,90.9596,269.1551,8.5054e-05,1.066e-05,0.0,0 STARLINK-4152,1 53136U 22083E   24165.36341707  .00001066  00000-0  85054-4 0  9991,2 53136  53.2167 141.7198 0001351  90.9596 269.1551 15.08842055106445,6917.874,95.437,540.674,538.805,0.0
53136.0,STARLINK-4152,PAYLOAD,2024-06-13 15:04:52,15.08837477,0.0001278,53.2162,140.5308,89.9968,270.1171,5.387e-05,5.7e-06,0.0,0 STARLINK-4152,1 53136U 22083E   24165.62838086  .00000570  00000-0  53870-4 0  9991,2 53136  53.2162 140.5308 0001278  89.9968 270.1171 15.08837477106485,6917.888,95.438,540.637,538.869,0.0
